[{"OBJECT_NAME":"METEOR-M 2","OBJECT_ID":"2014-037A","EPOCH":"2026-03-09T23:09:30.537792","MEAN_MOTION":14.21428734,"ECCENTRICITY":0.00053128,"INCLINATION":98.5035,"RA_OF_ASC_NODE":48.2672,"ARG_OF_PERICENTER":336.7967,"MEAN_ANOMALY":23.2971,"EPHEMERIS_TYPE":0,"CLASSIFICATION_TYPE":"U","NORAD_CAT_ID":40069,"ELEMENT_SET_NO":999,"REV_AT_EPOCH":60522,"BSTAR":2.6040138e-5,"MEAN_MOTION_DOT":1.5e-7,"MEAN_MOTION_DDOT":0},{"OBJECT_NAME":"DMSP 5D-2 F8 DEB","OBJECT_ID":"1987-053J","EPOCH":"2026-03-09T12:07:05.820672","MEAN_MOTION":14.26681019,"ECCENTRICITY":0.00171235,"INCLINATION":98.7309,"RA_OF_ASC_NODE":260.9084,"ARG_OF_PERICENTER":48.0885,"MEAN_ANOMALY":312.1752,"EPHEMERIS_TYPE":0,"CLASSIFICATION_TYPE":"U","NORAD_CAT_ID":60251,"ELEMENT_SET_NO":999,"REV_AT_EPOCH":8502,"BSTAR":0.00097521904,"MEAN_MOTION_DOT":2.318e-5,"MEAN_MOTION_DDOT":0}]
